ONEWEB-0156             
1 48052U 21025L   24097.95852345  .00000215  00000+0  55504-3 0  9991
2 48052  87.8899 119.7146 0002037  92.0947 268.0415 13.13470743148396
ONEWEB-0161             
1 48053U 21025M   24097.77917182 -.00000253  00000+0 -72671-3 0  9991
2 48053  87.8902 119.7557 0002076  99.1823 260.9541 13.13471357148306
ONEWEB-0158             
1 48054U 21025N   24097.81726442  .00000355  00000+0  93637-3 0  9990
2 48054  87.8899 119.7407 0001980  88.1729 271.9626 13.13471532148437
ONEWEB-0157             
1 48055U 21025P   24097.76488961 -.00000042  00000+0 -15009-3 0  9998
2 48055  87.8900 119.7670 0002235  94.2998 265.8387 13.13470870148365
ONEWEB-0162             
1 48056U 21025Q   24097.95692000  .00000172  00000+0  43624-3 0  9997
2 48056  87.8895 119.7256 0002090  91.7670 268.3698 13.13471740148367
ONEWEB-0155             
1 48057U 21025R   24097.82520669  .00000247  00000+0  64080-3 0  9997
2 48057  87.8898 119.7611 0001989  93.0083 267.1274 13.13470396148481
ONEWEB-0149             
1 48058U 21025S   24097.76965787 -.00000183  00000+0 -53574-3 0  9992
2 48058  87.8898 119.7688 0002245  88.9519 271.1867 13.13468682148285
ONEWEB-0148             
1 48059U 21025T   24097.96328679  .00000311  00000+0  81699-3 0  9998
2 48059  87.8900 119.7377 0002693  90.8698 269.2740 13.13470587148434
